Organisation Name	ID	Type	Membership Type	Guaranteed?	Network Member?	First Buyer Label	Membership Status	Money Status	Address	City	County	CountryName	Postcode	Language	LocalCurrencyId	Telephone1	Telephone2_tx	Fax	Email	Website	YearJoined	YearLeft	Publications_mm	FurtherInformation_mm	LastUpdatedOn_dt	OldId_tx	Username_tx	Email2_tx	Email3_tx	Telephone3_tx	ContactFullName_tx	ContactPosition_tx	ContactEmail	Comments	Website	PO/MO/NTO
Ambala Hammocks	557	GS SAR Due	FTO	Guaranteed			Member	Pending	"Isaiambalam, Alankuppam, Auroville"	Pondicherry	Pondicherry	India	605 111	English	8	91 413 2623753	91 9360272765		ambala125@yahoo.co.in		2007			Ambala Hammock was formelly called AuroAmbala handicrafts	18-Mar-13		auram	ambalahammocks@gmail.com			Elamvaluthi Jayabalan	Managing Director	ambala125@yahoo.co.in			PO
Angel Felting	4331	Provisional SAR Due	FTO				Provisional	Paid 2018	"Darkhan-Uul aimag, 6th bag, Building 79 45053"	Darhan-Uul	Mongolia	Mongolia				"99028582, 99404813"			angelfelting6@gmail.com	ww.rcm-organic.com													angelfelting6@gmail.com			PO
Apikri	15	GS SAR Due	FTO	Guaranteed	FFTI		Member	Paid 2018	"Jl. Imogiri Barat Km. 4, 5 No. 163 A"	Yogyakarta		Indonesia	55187	Bahasa	12	62 0274 389 990		62 0274 389 990	info@apikri-craft.org	http://www.apikri-craft.org/	2000				7-Jun-12	APIKRI	apikri	marketing@apikri-craft.org	"director@apikri-craft.org, development@apikri-craft.org"		Mrs. Sudiyanti ( Yanti Sukamta ) 	Director	info@apikri-craft.org 			Int.
Aranya Crafts	17	FTO PV Overdue	FTO		ECOTA		Member	Paid 2018	"60 Kemal Ataturk Avenue, Banani"	Dhaka		Bangladesh	1213	Bengali		880 2 988 2542		880 2 882 3174	nkhair@gmail.com	http://www.aranyacrafts.com.bd	2000		"Rangeen - Natural Dyes of Bangladesh, Naksha - Designs of Bangladesh, brochures and export catalogues, our website: www.aranyacrafts.com"	Aranya conducts training workshops in Bangladesh and abroad. It also organises promotional exhibitions to popularise natural dyes with the craftspeople and the general public.	17-Oct-13	ARANYA	aranya	sarah.crafts01@gmail.com	aranyacrafts@gmail.com		Khair Nawshin	Executive Director	mosharaf2002bd@yahoo.com			PO/Int.
Artisan Hut	873	FTO PV Due	FTO		ECOTA		Member	Pending	"House Number 4, Road No. 1, Sector No. 7, Uttara Dhaka - 1230"	Dhaka		Bangladesh	1230	Bengali		18190270869			artisanhut@gmail.com	http://www.artisanhutbd.com	2014							mhaque31@dhaka.net	monjuhaque@artisanhutbd.com		Monjurul Haque	CEO	artisanhut@gmail.com	WFTO-Asia non-aligned 		PO
Artisan Link (Zardozi)	906	GS SAR Due	FTO	Guaranteed			Member	Paid 2018	"32-D/1, Circular Road, University Town"	Peshawar		Pakistan	22000			00 92 915842530			zardozitahira@gmail.com	http://www.afghanartisans.com/content/6-about-zardozi								fayazmahmood@gmail.com	technicalzardozi@gmail.com		Tahira Afridi	Director	zardozitahira@gmail.com			PO
Artisan Well	914	GS SAR Due	FTO	Guaranteed			Member	Pending	"239/1 N.S.C. Bose Road, Nirala Apartment, Flat No. 8, 2nd Floor"	Kolkata	West Bengal	India				0091 33 2421 7922			Artisanwell@vsnl.net	www.artisanwell.org											Kousic Bhattacharjee		artisanwell@hotmail.com 			PO/Int.
Artisans Association of Cambodia (AAC)	385	FTO Audit Due	FTSO		AAC		Member	Pending	"House #12C, Street 105, Sangkat Beung Trabek, Khan Chamcarmon, PO Box No.1303"	Phnom Penh		Cambodia				855 23 213904	855 12 790735	855 23 220 150	aac@online.com.kh	www.aac.org.kh	2005			"Membership type is changed in 2010, from FTSO to FTN."	19-Mar-13		artiac	fashioncambodia@gmail.com			Men Sinoeun	Manager	aac@online.com.kh			NTO [but still trading]
Arum Dalu Mekar (ADM)	21	GS SAR Due	FTO	Guaranteed	FFTI		Member	Paid 2018	"Jl. Dhayanapura, nunas Rejeki Bungalow n.1"	Seminyak	Bali	Indonesia	80361	"Bahasa, English"	12	62 361 73 1414		62 361 73 1414	arumdalu@indosat.net.id	www.arumdalu.net	2004				20-Mar-09	ARUMDA	arumda	arumdalus@yahoo.com			Setyowati Nawangsari	Manager	arumdalu@indosat.net.id			PO
Asha Handicrafts Association	24	GS SAR Due	FTO	Guaranteed	FTFI		Member	Paid 2018	"1st Floor R.R. Industrial Estate, Off Western Express Highway Kashimira Mira Road"	Mumbai		India	4010104	"English, Hindi"	8	91 22 26845404	91 22 6551 5353	91 22 26848378	asharesources@gmail.com	www.ashahandicrafts.in	1998		"Website: www.peoplink.org/asha, Yearly newsletter and Annual Report"	"Volume business at very competitive prices, for a variety of products, can be provided to ATOs and commercial enterprises."	17-Sep-14	ASHAHA	ashaha	partner@vsnl.com	lucaswfto@gmail.com		Lucas Caldeira	CEO	ceo@ashahandicrafts.com			Int.
"Asia Fairtrade Network Trading Co., Ltd (AFNTC)"	888	GS SAR Due	FTO	Guaranteed	KFTO		Member	Paid 2018	"1F, 13-1 Seoulsup 4 gil, Seongdong-gu"	Seoul		Korea	133-824			82 70 4465 3341			lunauhuru@gmail.com	asiafairtrade.net	2014							afn.sns@gmail.com	leekangbaek@gmail.com		Luna	General Manager	lunauhuru@gmail.com			MO
Assisi Garments	31	FTO PV Overdue	FTO		FTFI		Member	Pending	"Palangarai PO, Kulathupalayam"	"Avinashi, Coimbatore DT"	Tamilnadu	India		English	8	91 4296 302302	91 94430 42602	91 4296 272602	dgm@assisiorganics.com	www.assisiorganics.com	2004				7-May-10	ASSISI	assisi	ag@assisiorganics.com	erp@assisiorganics.com		Syril Kurian	General Manager	assisi@satyam.net.in			PO
Association for Craft Producers (ACP)	2	GS SAR Due	FTO	Guaranteed	FTGN		Member	Paid 2018	POB-3701 Ravi Bhawan Mode	Kathmandu		Nepal	NONE	Nepalese		977 1 4275108	977 1 4270721	977 1 4272676	program@craftacp.org.np	www.acp.org.np	2003				22-Oct-13	ACPNEP	acpnep	export@craftacp.org.np			Meera Bhattarai	Executive Director	ed@craftacp.org.np			PO
Auromira Exports	787	GS SAR Due	FTO	Guaranteed	FTFI		Member	Paid 2018	"PLOT NO. “C” EDAYANCHAVADI ROAD, (Opp.Pasic), KARUVADIKUPPAM, LAWSPET, "	Pondicherry		India	605 008	English	8	0091 41 36547491	00 91 97866 95866	00 91 413 2622961	auromiraexports@vsnl.net	www.auromiraexports.com	2012			special case : will go directly to Registered member upon payment and signed contract logo	17-Sep-14			auromiraexpo@bsnl.in	auromiraexports@yahoo.com		Saravanan	President	auromiraexports@vsnl.net			PO
Baladarshan	703	GS SAR Overdue	FTO	Guaranteed	FTFI	RainTree	Member	Paid 2018	"245, Sathyavani Muthu NagarPallavan Salai"	Chennai		India	600002	English	8	0091 4428112520	91 44 67542188		balafairtrade.office@gmail.com	www.baladarshan.com	2010				17-Sep-14			kspchennai@gmail.com	balafairtrade@gmail.com		Philippe Malet	Managing partner/Production and Exporting manager	balafairtrade.office@gmail.com			PO
Bangladesh Hosto Shilpo Ekota Sheba Songshta (BaSE)	38	GS SAR Due	FTO	Guaranteed			Member	Paid 2018	"House # 71/1 Atim Khana Road, Maheshwar Pasha, Mankitala, Daulatpur"	Khulna		Bangladesh	9000			00 880 171 5684 374			base.bangladesh.1977@gmail.com	www.basebangladesh.org					19-Sep-14			base@khulna.bangla.net			Shourove Ansari	Coordinating Director	base.bangladesh.1977@gmail.com			PO/Int.
Barcelona Multi-Purpose Co-op (BMPC)	37	GS SAR Due	FTO	Guaranteed			Member	Paid 2018	"Guarina Street, Poblacion Norte, Sarsogonn"	Barcelona		Philippines	4712	English		00 63 9288214 379	00 63 9194375440		bmpci@yahoo.com	no website											Merly C Galias	Manager	bmpci@yahoo.com			PO
Beautiful Coffee	893	GS SAR Due	FTO	Guaranteed	KFTO		Member	Paid 2018	"88 Donhwamun-ro, Jongno-gu, 110-360"	Seoul		Korea	110-360			82 070 4942 0778	82 010 4084 0309		hansoojung21@gmail.com	www.beautifulcoffee.org	2014				3-Sep-12			dykim1411@bcoffee.org	sunghopark.bc@gmail.com		Han Soon	Trading Manager	hansoojung21@gmail.com			MO
Biansa Home	1018	Provisional SAR Due	FTO				Provisional	Paid 2018	Pesona Ketingan D1 Tirtoadi Mlati Sleman 	Yogyakarta	Indonesia	Indonesia	nettyfebriana@yahoo.com	biansahome@yahoo.co.id		62 85 327 855 994			nettyfebriana@yahoo.com	PO		8/12/16									Netty Febriana	Director	nettyfebriana@yahoo.com			PO
Biji_Biji Initiative	1031	FTO PV Due	FTO				Member	Pending	"No. 2 Jalan Sungkai off Jalan Ipoh, Taman Rainbow"	Kuala Lumpur	Malaysia	Malaysia	share@biji_biji.com	nora@biji_biji.com	rashvin@biji_biji.com	03_62429809			ambika@biji_biji.com	PO		1/25/17						nora@biji_biji.com	rashvin@biji_biji.com		Ambika Sangaran	Sustainability Manager	nora@biji_biji.com			PO
BODHI	590	FTO PV Overdue	FTO				Member	Pending	"889/4 GIDC. MakarpuraVadodara 390010GujaratIndia"	Varodara		India	390010	English	8	91 265 2632026	91982 4465633		bodhiindia@gmail.com	www.bodhi.in	2008				14-Jan-14		bdh			91 982 4099060	Mala Sinha	Monitoring Officer	bodhiindia@gmail.com			
Brac-Aarong	500	FTO Audit Due	FTO		ECOTA		Member	Paid 2018	"Aarong Central Service 346 Tejgaon Industrial Area"	Dhaka		Bangladesh	1208			880 2 9898267	880 2 8837233	880 2 9898267	export.aarong@brac.net	www.brac-aarong.com	2007				17-Oct-13		aarong	shahnaz.parveen@brac.net		880 2 8832348	Shahnaz Parveen	Export Manager	shahnaz.parveen@brac.net			Int.
C C Shroff Self Help Centre	518	GS SAR Due	FTO	Guaranteed			Member	Paid 2018	"Ram House4 - Gaiwadi Industrial Estate SV RoadGoregaon West"	Mumbai		India	400062			91 22 28726151		91 22 28769811	shroffshc@gmail.com	http://www.selfhelpcentre.org/	2007				17-Oct-13		ccshro	shroffshc@gmail.com			PA Isaac		shroffshc@gmail.com			PO
Café Timor	953	FTO PV Due	FTO		KFTO		Member	Paid 2018	"Mullae 2 ga 138gil 4, dorim St. "	Seoul		Korea				02 365 7891			peace_coffee@naver.com									soso1144@hanmail.net	247kor@gmail.com		Kansan KEUM	Manager	jjd0414@naver.com			MO
CFM Market Linkages	577	FTO Audit Overdue	FTO				Member	Pending	"R-15 Between R9 & R15, South Extension Part 2, Near Jain Mandir"	New Delhi		India	110049			011 64642060	91 11 2649 8820	91 11 2981 0476	arjun.adya@gmail.com	www.whycfm.org	2008				24-May-12		cfmovt	rahul@whycfm.org	info@whycfm.org		Arjun Adya	President	arjun@whycfm.org			Int.
Children-Nepal	62	FTO Audit Overdue	FTO		FTGN		Member	Paid 2018	"PO Box 357, Masbar"	Pokhara		Nepal		Nepalese	5	977 61 461554	977 61 461938	977 61 461575	cnsumu@ntc.net.np	http://www.children-nepal.net.np	2002				19-Feb-14	CHNEPA	chnepa	rampokhara@yahoo.com	children-nepal@fewanet.com.np		Ram Chandra Paudel	Executive Director	cnsumu@ntc.net.np			PO
Classical Handmade Products	898	GS SAR Due	FTO	Guaranteed	ECOTA		Member	Pending	"House # 496, Road #1, Baridhara D.O.H.S. "	Dhaka & Saidpur		Bangladesh	1212			0088 01713036940	880 2 8414524		tauhid@rugsbd.com	www.rugsbd.com								compliance@rugsbd.com	rajib@rugsbd.com		Md. Tauhid Bin Abdus Salam	Proprietor	tauhid@rugsbd.com			PO
Community Crafts Assocication of the Philippines (CCAP)	57	GS SAR Due	FTO	Guaranteed			Member	Paid 2018	"CCAP Building693 G. Araneta Avenue corner Kaliraya Street"	St. Quezon City		Philippines	1100	English		63 2 712 2160 	63 27122169	63 2 712 2169	vpalferez@ccapfairtrade.com	http://www.ccapfairtrade.com	1997				11-Apr-13	CCAPHI	ccaphi	czarina.gragera@ccapfairtrade.com	advocacy@ccapfairtrade.com		Voltaire Alferez	Executive Director	vpalferez@ccapfairtrade.com			Int.
Conserve India	1043	Provisional SAR Due	FTSO		FTFI		Provisional	Pending	"A116 Madhuban, Vikas Marg, 110092"	New Delhi	India	India	anita@conserveindia.org	shalabh@conserveindia.org	shailendra@conserveindia.org	91 11 43017210			kanika@conserveindia.org	PO		3/14/17						shalabh@conserveindia.org	anita@conserveindia.org		Kanika Ahuja	Officer	kanika@conserveindia.org			PO
CORR - The Jute Works (CJW)	74	GS SAR Due	FTO	Guaranteed	ECOTA		Member	Paid 2018	"House# 27, Road# 119, Block CES-B, Gulshan"	Dhaka		Bangladesh	1212	Bengali		880 2  883 7745	880 2 883 7746	880 2 988 3641	mail@cjwbd.com	www.cjwbd.com	1998		"Annual report, Product catalogues, Newsletter (Jute), Promotional CD, our website: http://cjw.bangla.net"		6-Jan-14	CORRJU	corrju	dev@cjwbd.com		880 1730024060	Bertha Gity Baroi	Director	mail@cjwbd.com			PO/Int.
Craft Link	75	FTO PV Overdue	FTO				Member	Paid 2018	43 Van Mieu St	Hanoi		Vietnam		English	22	84 4 3 7336101		84 473 361 01	craftlink@fpt.vn	http://www.craftlink.com.vn/	2002				29-Oct-13	CRAFTL	craftl	lancraftlink@yahoo.com			Tran Tuyet Lan	General Manager	craftlink@fpt.vn			PO/Int.
CraftBeauty Workshop	692	FTO Audit Overdue	FTO				Member	Paid 2018	"No. 35/97, Nam Duong Rd. Long Bien District"	Hanoi		Vietnam			22	84 462 535 533		84 48776713	vnhandmade@gmail.com	www.vnhandmade.com	2010				21-Mar-11			craftbeauty@yahoo.com	diepebiz@gmail.com		Hoai Nguyen	contact person	vnfairtrade@gmail.com			PO
CRC Exports	389	GS SAR Due	FTO	Guaranteed	FTFI		Member	Paid 2018	"34, Ballygunje Circular Road"	Kolkata	West Bangel	India	700019	English	8	91 3324745789	91 3324760504	91 3324747747	iranisen@gmail.com	www.fairandsquare.co.in	2005				17-Oct-13		crcexp	crcwalia@gmail.com		91 9830748478	Irani Sen		crcwalia@gmail.com			PO
Creative Handicrafts	373	GS SAR Due	FTO	Guaranteed	FTFI		Member	Paid 2018	"D. P. oad, MIDC, Andheri East, Mahakali Caves Road"	Mumbai		India	400093	English	8	00 91 22 283 24692		0091 22 28379268	johnyjoseph@creativehandicrafts.org	www.creativehandicrafts.org	2005				16-Sep-13		creaha	jennie@creativehandicrafts.org	reggie@creativehandicrafts.org		Johny Joseph	Director	johnyjoseph@creativehandicrafts.org			PO
Crossroads Foundation Ltd.	675	FTO	FTSO				Member	Paid 2018	"2 Castle Peak RoadCastle Peak Bay"	Tuen Mun		Hong Kong				852 2984 7402		852 2771 1715	admin@crossroads.org.hk	www.crossroads.org.hk	2014			"or the organisation as a whole, the question is a moot one because it does not generate a profit in the medium or long-term. For profits made within Global Handicrafts, the Global Handicrafts management team, with input from and sign-off by our Managing D"	7-Jun-11			marketplace@crossroads.org.hk	jmarketplace@crossroads.org.hk		Joshua Begbie	Contact person	jmarketplace@crossroads.org.hk			MO
Danyun Fair Trade Development	332	GS SAR Due	FTO	Guaranteed			Member	Paid 2018	"Hua Er Dun Building 18/FQuingnian Road 387"	Kunming	Yunnan	China	650021	English		86 871 315 9299 ext.811	86 871 315 9299	86 871 315 9624	danyun@danyunfairtrade.com	www.danyunfairtrade.com	2002				17-Sep-13	YUNNAN	yunnan	danyun@danyun.com			Bitten Hogh	General Manager	bitten@danyunfairtrade.com			PO
Development Wheel (DEW)	84	GS SAR Due	FTSO	Guaranteed	ECOTA		Member	Pending	"13-A/4-A (3rd floor), Babar Road, Block-B, Mohammadpur"	Dhaka		Bangladesh	1207	Bengali		88 0 1715 12 0140		880 2 8115579	dewsalam@gmail.com	http://www.dewbd.org/	2001				9-May-13	DEVWHE	devwhe				Shah Abdus Salam	Executive Director	dewsalam@gmail.com			PO/Int.
Dhaka Handicrafts	468	FTO Audit Due	FTO		ECOTA		Member	Paid 2018	"House 562, Road 15, Mirpur DOHS, Mippur"	Dhaka		Bangladesh	1216	English	20	1787656825	880 2 9119563	880 2 9119163	tanudey@dhakahandicrafts.com	www.dhakahandicrafts.com	2013				27-Mar-14			info@dhakahandicrafts.com			Tanu Dey	Director	tarunpaul@dhakahandicrafts.com			PO/Int.
Earth Heir	4427	Provisional SAR Due	FTO				Provisional	Paid 2018	"Earth Heir Studio, 102, First Floor, Lorong Mamanda 2, 68000 Ampang"	Selangor	Malaysia	Malaysia				60 132117994 			team@earthheir.com	joanne@earthheir.com	Communications and Project Manager		joanne@earthheir.com					joanne@earthheir.com			Joanne Ng	Communications and Project Manager	joanne@earthheir.com			MO
ECOTA	92	FTN in GS	FTN		ECOTA		Member	Pending	"Fast Nahar 5th Floor Flat #5A, House #19/A/18/1 Block F, Tikkapara, Ring Road, Mohammadpur"	Dhaka		Bangladesh				1777515535			info@eftfbd.org	swapan@prokritee.com								swapan@prokritee.com			MD. Nuruzzaman		director@eftfbd.org			NTO
Equitable Marketing Association (EMA)	98	GS SAR Due	FTO	Guaranteed	FTFI		Member	Paid 2018	82 Baburam Ghosh Road	Kolkata		India	700 040	Bengali		0091 9830157873		0091 9433043514	emaswapna@emaindia.org.in	www.emaindia.org	1998			"The charitable trust, EKTA Trust, was established in 1999 to carry out social development activities."	22-Oct-13	EQMAAS	eqmaas	souvik@simplesolutions.co.in		0091 3218 245844	Swapna Das	Development Manager -Production	souvik1977@gmail.com			PO/Int.
ESAF Swasraya Producers Co 	642	FTO PV Overdue	FTO		FTFI		Member	Pending	"Hephzibah Complex, Mannuthy, Thrissur"	Kerala		India	680651	English		4872373813	91 487 237 3813		esafproducercompany@gmail.com	www.preranahandicrafts.com	2009				5-Mar-13		vnsfr	esafspclsri@gmail.com		91 487 237 5445	K Paul Thomas	Executive Director	esafpaul@gmail.com			PO
Fagi Corporation	947	FTO PV Due	FTO				Member	Pending	"51 Dinh Tien Hoang Street Da Kao Ward, Dist. 1"	Ho Chi Minh		Vietnam				84 8625 6747			grande@phangiahy.com												Phan Thi Thanh Tam		grande@phangiahy.com			PO
Fair Gift	916	FTO PV Due	FTO				Member	Paid 2018	"No.1, 8th St, Nagammai Nagar, Avadi"	Chennai		India				0091 9841430831			fairgift@hotmail.com	www.fairgift.in											Pl. Ramasamy (Ram)	CEO	fairgift@hotmail.com			Int.
Fair Trade Forum India (FTFI)	482	FTN in GS	FTN		FTFI		Member	Paid 2018	"Flat No.206, 2nd Floor Plot No.62-A/1, Garhi East of Kailash"	New Delhi		India	110065	"English, Hindi"	8	91 11 65264630			ftfindia@gmail.com	www.fairtradeforum.org	2006				5-May-14		fairtfi	searchindia2000@gmail.com	ed@fairtradeforum.org		Mallikarjuna Iytha	President	ftfindia@gmail.com			NTO
Fair Trade Group Nepal (FTGN)	116	FTN in GS	FTN		FTGN		Member	Pending	"Jhamsikhel, Laltipur GPO Box 13620"	Kathmandu	"Kupondole, Lalitpur"	Nepal		Nepalese	5	977 1 554 9848	977 1 5542608		ftgnepal@info.com.np	http://www.fairtradegroupnepal.org	1998				5-May-14	FTGNEP	ftgnep	fairtrade@info.com.np			Sunil Chitrakar	Chairperson	ftgnepal@info.com.np			NTO
Fair Trade Korea Company Limited	1030	FTO PV Due	FTO		KFTO		Member	Pending	"3rd floor, 245 Eunpyeong-ro, Eunpyeong-gu 03382"	Seoul	Korea	Korea	trade1@fairtradekorea.co.kr	ceo@fairtradekorea.co.kr		82-2-739-7934			trade1@fairtradekorea.co.kr	PO		12/23/16						ceo@fairtradekorea.co.kr	jjjj2300@naver.com		Jiyun Jeon	Trading Team Staff	trade1@fairtradekorea.co.kr			MO
FairTrade ChiangMai (FTCM)	729	GS SAR Due	FTO	Guaranteed			Member	Paid 2018	"172/1 Moo 8, T.Khilek, A.MaeRIm"	Chiang Mai		Thailand	50180	"Thai, English"	Baht	66 837934793			herman.leyten@gmail.com												Herman Leyten	Managing Director	herman.leyten@gmail.com			PO/Int.
Federation of South India Producer Associations (SIPA)	275	GS SAR Due	FTO	Guaranteed	FTFI		Member	Pending	"No. 21, Anna Street, Sathya Nagar Extension"	Chennai		India	600 070			0091 44 2248 6791 / 92 / 93		0091 44 2248 6794	sipa@vsnl.com	http://www.sipa.in	1991		"Annual report, Information brochure and our website: www.sipacrafts.com"	SIPA is on to networking of Self-Help Groups (SHGs) and NGOs at State Level for Micoro Finance and Micro Enterprises support for strengthening the economic empowerment process at grassroot level with full participation of the members SHGs.	27-Jun-12	SIPAIN	sipain	sipapanchu@gmail.com	sipafairtrade@gmail.com		Dr. K. Panchaksharam (Panchu)	Founder and CEO	sipapanchu@gmail.com			Int.
FOLK International / Export 	882	FTO PV Due	FTO		FTGN		Member	Pending	"PO Box 7355, Lazimpat, "	Kathmandu		Nepal				00977 01 442 6009	977 01  4415350	977 1 4415350	info@folknepal.com	http://folknepal.org											Dhan Kumar Rai	Chairperson	info@folknepal.com			PO
FOLK Nepal	1032	FTO PV Due	FTSO		FTGN		Member	Pending	"PO Box No 7355, Lazimpat-2"	Kathmandu		Nepal				01 4426009			folknepal@info.com.np									Arati@folknepal.com 	info@folknepal.com		Dhan Kumar Rai	Chairperson	folknepal@info.com.np			Int.
Forum Fair Trade Indonesia (FFTI)	909	FTN in GS	FTN		FFTI		Member	Pending	"Ruko Grya Sanur, Jl. Bypass Ngurah Rai Sanur, Sanur Kaja, Denpasar"	Denpasar		Indonesia				361 283555	8123673 3876		agungalit@mitrabali.com									info@forumfairtradeindonesia.org			Agung Alit	Secretary General	retno.hapsari@xsproject-id.org			NTO
Freeset Bags and Apparel	700	GS SAR Due	FTO	Guaranteed			Member	Paid 2018	172 Ramamesh Dutta St.	Kolkata		India	700006		8	91 98 3646 8537			customercare@freesetglobal.com	http://freesetglobal.com/	2010				2-Apr-13		frest	fairtrade@freesetglobal.com		0091 3330956128	Rahul Sen	General Manager	fairtrade@freesetglobal.com			PO
Get Paper Industry (GPI)	125	GS SAR Due	FTO	Guaranteed	FTGN		Member	Pending	"PO Box 3245, Bansbari"	Kathmandu		Nepal		Nepalese	5	977 1 4370819	977 9851019071	 977 1 437234	mdb@ntc.net.np	www.gpicoop.org	2003				7-Mar-14	GETPAP	getpap	ratna@gpicoop.org	amisha@gpicoop.org		Ratna Prasad Shrestha	General manager	ratna@gpicoop.org			PO
Giang Pham Shoes	1053	Provisional SAR Due	FTO				Provisional	Pending	"196A, Dong Tu Quarter, Lai Thieu Town, Thuan An District"	Bin Doung	Vietnam	Vietnam	143-805			84 650 3636826			jxie@giangpham.com.vn												James Xie	Managing Director	jxie@giangpham.com.vn			PO
Godavari Delta Women Lace Artisans Coop Cottage Industrial Society	129	FTO PV Overdue	FTO		FTFI		Member	Paid 2018	"NARSAPUR - 534 275, W.G.DIST, ANDHRA PRADESH"	West Godavari District	Andhra Pradesh	India	534275	English	8	91 8814 274754		91 8814 275173	gdwlacci@yahoo.co.in	www.gdwlace.com	1998				22-Apr-13	GODAVA	godava				Kondapu Satya Sri	President	gdwlacci@yahoo.co.in			PO
Goel Community	983	GS SAR Due	FTO	Guaranteed	AAC		Member	Paid 2018	"Thnoat village, Thnoat quarter, Bati district"	Takeo		Cambodia				855 17 444 010			goelplus@gmail.com									panha@goelcommunity.org			BOPHAVANN Chetha Oudom	Commucation Officer	goelcommunity@gmail.com			PO
Golden Palm Crafts	131	GS SAR Due	FTO	Guaranteed			Member	Pending	45 Horton Place	Colombo		Sri Lanka	7	English		94 11 268 5386	94 77 734 7845	94 11 268 6877	ravi@goldenpalmcrafts.com	www.goldenpalmcrafts.com	1998				23-Aug-10	GOLPAL	golpal	ravi-gpc@sltnet.lk	goldenpalmsl@sltnet.lk		Ravi Jayawardena	Chairman	ravi@goldenpalmcrafts.com	COMPLAINTS HAD ABOUT IT.		PO
Gospel House Handicrafts	132	GS SAR Due	FTO	Guaranteed			Member	Pending	"Pradesiya Saba Road,  New Town"	Madampe		Sri Lanka	61230		25	94 0 777390042 /32  2247712	94 0 112508005	94 0 32 224 7646/ 32 22 47646	ghhlanka@sltnet.lk	http://www.woodbrix.com	1998				12-Sep-13	GOSPEL	gospel	gospelhh@sltnet.lk	ghhlanka@sltnet.lk		Shiran Karunaratne	Director	gospelhh@sltnet.lk			PO
Green Net Cooperative	136	GS SAR Due	FTO	Guaranteed			Member	Paid 2018	"6 Wattana-Nivej 7m Suthisarn Road, Sam-saen-nok, Huay-KwangSuthisarn Rd,  Sam-saen-nok,Huay-Kwang"	Bangkok		Thailand	10310	English	16	66 0 2 277 9380		66 0 2 277 9654	vitoon@greennet.or.th	www.greennet.or.th	2003				13-Jun-12	GRENET	grenet	info@greennet.or.th	michael@greennet.or.th	66 816822653	Vitoon Panyakul	Chair Person	vitoon@greennet.or.th			PO/Int.
Ha Linh Rattan and Bamboo Company Limited	949	FTO PV Due	FTO				Member	Paid 2018	"Phu Nghia Industrial Zone, Chuong My District"	Hanoi	Vietnam	Vietnam	halinh@handmadevn.vn	halinh@hanoihandmade.vn		84 91 324 85 53			halinh@handmadevn.vn			10/12/15	2/9/17								Thang Cong Dang	Director	halinh@handmadevn.vn			PO
Hatale Udhyog	878	GS SAR Due	FTO	Guaranteed	FTGN		Member	Paid 2018	"Sitapaila, VDC, 3KAP.O.Box 6750"	Kathmandu		Nepal	GP6750			977 01 4034706			reshu@wlink.com.np	http://www.hatale.com	2014							nepalipp@wlink.com.np			Bishnu Prasad Shrestha	MD	reshu@wlink.com.np			PO
Healthy Sweets Mindanao 	1041	Provisional SAR Due	FTO				Provisional	Paid 2018	"Purok 3, Brgy. Katipunan, Panabo City, Davao del Norte 8105"	Davao del Norte	Philippines	Philippines				6.39175E+11			healthysweets.dvo@gmail.com	PO		3/9/17									Betty M. More	Director	healthysweets.dvo@gmail.com			PO
Hidellana Tea Factory 	1063	Provisional SAR Due	FTO				Provisional	Pending	"Hidellana, Rathnapura 70000"	Rathnapura	Sri Lanka	Sri Lanka				94452262211			hidellanaqo@mails.rtstea.com									jayasinghe@rtstea.com	lalith@rtstea.com		Gihani Jayasinghe	Managing Consultant	hidellanaqo@mails.rtstea.com			PO
Hold The Future Centre	754	FTO Audit Due	FTO				Member	Pending	96/19B Co Nhue Tu Liem	Hanoi		Vietnam	10000		22	84 4 22426664	977 1 94 8242488	84 4 37525355	wfto@holdthefuture.org	http://www.holdthefuture.org/	2011				19-Oct-13			builanoanh@gmail.com	ketoan@holdthefuture.org	84 1685 601501	Mrs Hien	Accountant	hien@holdthefuture.org			PO
Homeland Development Initative Foundation (HDIF)	945	GS SAR Due	FTO	Guaranteed			Member	Paid 2018	"Melik Adamyan Street 2/2, Impact Hub,"	0010 Yerevan		Armenia				374 77 473 335			info@hdif.org									director@hdif.org	tim@hidf.org		Anahit Mkhoyan		director@hdif.org			Int.
Hong Kong Fair Trade Power (HKFTP)	839	GS SAR Due	FTO	Guaranteed			Member	Paid 2018	"2G, Metex House, 28 Fui Yiu Kok Street, Tsuen Wan"	Hong Kong		Hong Kong	N/A			852 31888064	852 94938420	852 31880064	info@hkfairtradepower.com	http://www.hkfairtradepower.com/	2014				3-May-13			joanne@hkfairtradepower.com	achiu89@gmail.com		Joanne Chung Yan Choi	Deputy Director	joannecychoi@gmail.com			MO
Indo Riksakti	991	FTO Audit Due	FTO				Member	Pending	Jl. Ringroad Manding RT 06 Trirenggo Bantul 	Jogjakarta	Indonesia	Indonesia	riris@indorisakti.com			62-274-6462178			riris@indorisakti.com	PO		6/10/16						windu@indo-risakti.com			Riris Simanjuntak	Manager	riris@indorisakti.com			PO
Indonesian People's Handicraft Foundation (Pekerti)	224	GS SAR Due	FTO	Guaranteed	FFTI		Member	Paid 2018	"Jl. Waru No. 21 A, Rawamangun"	East Jakarta		Indonesia	13220	Bahasa	12	62 21 4786 3008	62 21 4786 7664	62 21 4786 4052	pekerti@pekerti.com	www.pekerti.org	1998			"Pekerti is now taking a more economic approach to its work with producers in order to face the crisis in the country at this time. What matters most is that producers are now receiving a higher income (due to the increasing cost of living/ food, etc.) It "	27-Feb-14	PEKERT	pekert	ukrumah@pekerti.com			Mochamad Ichwani	Director	iwan@pekerti.com			Int.
Integrated Development Trust (IDT)	871	GS SAR Due	FTO	Guaranteed			Member	Paid 2018	28-4-403 Bangalore Highway	Anantapur Ramu		India	515001	"English, Spanish, Telegu"		08554 246051			handicrafts@rdt.co.in	www.indiaforindia.org	2014							responsible.idt@gmail.com	brenda.sheil@jacobswell.co.in 		Safia Begum	Assistant Director	handicrafts@rdt.co.in			PO
JW Productions	510	FTO Audit Due	FTO				Member	Paid 2018	"Oil Mill road, St Thomas Town PostShamanna Garden Oil Mill RoadAravind Nagar St Thomas Town Post"	Bangalore		India	560084			91 0 80 4210 1464			brenda.sheil@jacobswell.co.in	http://www.jacobswell.biz/	2008			"original membership help by Oasis India (2008), since their project is separated, the membership is transferred to JW Productions Pvt Ltd (Jacobs well). Transfer approved by board in March 2013."	9-Jan-14		ssnds	contact@jacobswell.biz		91 22 2847 2564	Brenda Sheil	Contact person	brenda.sheil@jacobswell.co.in			PO
KFTA	869	GS SAR Due	FTSO	Guaranteed			Member	Paid 2018	"21, 1Gill, Bukchonro, Jongno-gu "	Seoul		Korea				02 739 1201			info@fairtradekorea.net	http://fairtradekorea.dothome.co.kr/?page_id=5	2014							ullimft@naver.com			Chang Soon Park	Director	info@fairtradekorea.net			MO
KFTO	928	FTN in GS	FTN		KFTO		Member	Paid 2018	"KFTO Office, Seoul Social Economy Center, Tongil-Ro 684, Eunpyeong-Gu"	Seoul		Korea				82 70 7516 4772			fairtradeday@naver.com	www.kfto.com											Youngeun Lee	Secretariat	yelee418@gmail.com			NTO
Kumbeshwar Technical School (KTS)	170	GS SAR Due	FTO	Guaranteed	FTGN		Member	Paid 2018	Box 2181	Kathmandu		Nepal		Nepalese	5	977 1 5537484	977 1 5539216	977 1 5549118	kts@ntc.net.np	www.kumbeshwar.com	2002			Terminated - April 2013 due to unpaid fees	1-Oct-13	KUMTEC	kumtec	kts@wlink.com.np	kirankhadgi@gmail.com		Kiran Bahadur Khadgi	Director	kirankhadgi@excite.com			PO
Lanka Upcycles 	974	FTO PV Due	FTO				Member	Paid 2018	"Manalchenai, Komari, Ampara district, Eastern Province"	Komari		Sri Lanka				0094 777164254			riceandcarrybags@gmail.com												Hendrik Konzok	Director	riceandcarrybags@gmail.com			PO
Lao Sericulture	452	FTO Audit Due	FTO				Member	Pending	"Phontong RoadBox 4556"	Vientiane		Laos	1100	english		00856 21 263371	00856 20 224 9903	00856 21 560 598	info@mulberries.org	www.mulberries.org	2006				9-Jun-10		laoser	darrell@moondata.com	bobyvos@laosilkandcraft.com	00856 20 552 1408	Boby Vosinthavong		info@mulberries.org			PO
Last Forest Enterprises	816	GS SAR Due	FTO	Guaranteed	FTFI		Member	Paid 2018	"41/111E, Groves Hill Road, Kotagiri, The Nilgiris, Tamil NaduKotagiri – 643217"	"The Nilgiris, Tamilnadu"		India	643217			04266 272266		04266 272277	mathew@lastforest.in	http://lastforest.in/	2012				12-Jul-13			info@lastforest.in	tasnim@lastforest.in		Mathew J		mathew@lastforest.in			MO
Little Flower	930	Provisional SAR Overdue	FTO				Provisional	Paid 2018	"Little Flower Sunderpur, Raxaul, East Champaran"	East Champaran		India				06255 222558			bhattaraikabita@hotmail.com												Kabita Bhattarai		bhattaraikabita@hotmail.com			PO
Little Smile Organic	611	FTO Audit Overdue	FTO				Member	Paid 2018	Dikkapitiya Estate	"Lamasthota, Nikapotha"		Sri Lanka	94			94 71 3257094 /  94 768800329	0094 71 32 57094/ 0094 71 72 58516	0049 0 575670131	lsorganic@gmail.com	www.littlesmileorganic.com	2009				28-May-10		ltsrg	little.smile.lk@gmx.de			K. Shiran Laksitha Silva	Managing Director	lsorganic@gmail.com			Int.
Lofty Bamboo	868	GS SAR Due	FTO	Guaranteed			Member	Paid 2018	"G10 Buddy Hotel, 265 Khao San Road TALATYOT, Phranakorn"	Bangkok		Thailand	10200			66 026294716			toshi@loftybamboo.com		2014							info@loftybamboo.com			Toshinori Takasawa		takasabai@hotmail.com			MO
Lombok Pottery Centre (LPC)	342	GS SAR Due	FTO	Guaranteed	FFTI		Member	Paid 2018	Jalan Sriwijaya No. 111A	Mataram	"Lombok, N.T.B."	Indonesia	83231	English	12	62 370 640351	62 370 646552	62 370 640350	lpc_mkt@indo.net.id		2004				4-Nov-13		ptlom			0091 44 64572188	Ayu	Director	lpc_mkt@indo.net.id			PO
Mahaguthi Craft with Conscience	181	GS SAR Due	FTO	Guaranteed	FTGN		Member	Paid 2018	773/15 Dillibazar	Kathmandu		Nepal	GPO 13762	Nepalese	5	977 1 5011607	977 1 4425553		sguthi@mos.com.np	http://www.mahaguthi.org	2002				7-Nov-14	MAHAGU	mahagu	mguthi@mos.com.np		977 1 5011607	Sunil Chitrakar	Executive Director	sguthi@mos.com.np			PO
Maharani	995	GS SAR Due	FTO	Guaranteed	FFTI		Member	Pending	"Jl.  Tangkuban Perahu Gang Mertasedana 7  Kerobokan,"	Bali	Indonesia	Indonesia	maharanicraft@yahoo.com			62 36 173 0676			maharanicraft.bali@gmail.com	PO		6/30/16						maharanicraft@yahoo.com			Irene Setiawati	Director	maharanicraft.bali@gmail.com			PO
Mai Savanh Lao	512	GS SAR Due	FTO	Guaranteed			Member	Pending	BP 7710	Vientiane		Laos	BP 7710			856 21 812256		856 21 812256	info@maisavanhlao.org	http://www.maisavanhlao.org	2008				29-Apr-13		msvnhl	schmilao@yahoo.fr			Dr. Philippe Schmidt	CEO	schmilao@yahoo.fr			PO
Mai Vietnamese Handicrafts (MVH)	638	FTO PV Overdue	FTO				Member	Pending	"298 Nguyen Trong TuyenTan Binh Dist"	Ho Chi Minh		Vietnam	70000			84 8 38440988	84 8 339970340	84 8 39970341	maihandvn@gmail.com	www.maihandicrafts.com	2009			"On June 7, 2011. A complaint is made by COLL.PART (Switzerland)  to Mai Vietnamese Handicrafts; claiming that MVH had stolen/copied the product/handbags designs of COLL.PART. There is no legal contract therefore no case can be made. But COLL.PART has a do"	17-Sep-13		mvtnm	ngamyle@gmail.com			"Phuong, Nguyen Uyen"	Contact person	maihandvn@gmail.com			PO
Mandala Apparels	874	GS SAR Due	FTO	Guaranteed			Member	Pending	"No. 1 All India Press Compound, Kennedy Nagar, Pondicherry"	Pondicherry		India	605001			0413 2204532 	0413 2203573		anjali@mandalaapparels.com	www.caos.in	2014							sanskriti@mandalaapparels.com	devina.fairtrade@gmail.com		Anjali Schiavina	CEO	anjali@mandalaapparels.com			PO
Manushi	184	GS SAR Due	FTO	Guaranteed	FTGN		Member	Paid 2018	"Gyaneshwor, G.P.O. Box No: 11385Physical Address:4-Nakhu, Lalitpur"	Lalitpur		Nepal	44700	Nepalese		977 1 5553896	977 1 5552997	9771 4412 680	manushi@mail.com.np	www.manushi.org.np (old: http://www.manushinepal.org/)	2003				26-Feb-13	MANUSH	manush	manushi@ntc.net.np		977 1 5534660	Padmasana Shakya	Executive Chairperson	manushi@mail.com.np			PO/Int.
Maroma	786	GS SAR Due	FTO	Guaranteed	FTFI		Member	Paid 2018	"Aspiration, Auroville 605 101, Tamilnadu"	Auroville		India	605101		8	91 413 2622126		91 0413 2622217	paul@maroma.com	www.maroma.com	2012			"special case, alignment member from WFTOA (using SAR), when approve, directly becomes registered member."	22-Apr-13			maroma@maroma.com	maroma@auroville.org.in		Laura Reddy	CEO	laura@maroma.com			PO
Maximus	881	FTO Audit Due	FTO				Member	Paid 2018	"329, Dam Street Colombo 12"	Colombo		Sri Lanka	0.0012			94 717789900			md@ecomaximus.com	www.ecomaximus.com	2014							design@ecomaximus.com	wasantha@edb.gov.lk		Thusitha Ranasinghe	Managing Director	md@ecomaximus.com			PO
Maya Organic	398	GS SAR Due	FTO	Guaranteed	FTFI		Member	Pending	"No.1580, behind azeez complexSathnur road"	Karnataka	Karnataka	India	562160	English	8	91 080 27252711			shahida@mayaorganic.com	www.mayaorganic.com	2008				7-Oct-13		mayaor	subbarao@mayaorganic.com	getinfo@mayaorganic.com		Shaheda Bano	Project Coordinator	shahida@mayaorganic.com			Int.
Mehera Shaw	1047	Provisional SAR Due	FTO				Provisional	Paid 2018	"H 61/A Meera Marg, Bani Park, Jaipur 302016"	Jaipur	India	India	shari@meherashaw.com			91 141 410 1636			shari@meherashaw.com	PO		4/5/17						info@meherashaw.com			Shari Keller	Director	shari@meherashaw.com			PO
Mereville Trust	197	GS SAR Due	FTO	Guaranteed	FTFI		Member	Paid 2018	"Udyogam, Tamil Nadu"	Auroville		India	605101	"Tamil, Hindi, English, Spanish, Catalan"	8	91 0 413 2622652	91 0 413 2622898	91 413 2622898	mereville@auroville.org.in	www.merevilletrust.com; www.auroville.com	2004				16-Jan-14	MTRUST	mtrust	prataprachana@auroville.org.in	avmerevilletrust@gmail.com		Pratap Chatterjee	Managing Trustee	prataprachana@auroville.org.com			PO
MESH (Maximizing Employment to Serve the Handicapped)	614	GS SAR Due	FTO	Guaranteed	FTFI		Member	Paid 2018	"5, Local Shopping Centre, Udai Park"	New Delhi		India	110 049			91 11 26965039	91 11 26568048		mathewkk@mesh.org.in	http://www.mesh.org.in/	2009				26-Apr-13		mxmzng	contact@mesh.org.in	jackybonney@mesh.org.in		Mathew KK		producerdevelopment@mesh.org.in			Int.
Mitra Bali Fair Trade	194	GS SAR Due	FTO	Guaranteed	FFTI		Member	Paid 2018	"Jalan Gunung Abang,Banjar Lod Sema,Desa Lod Tunduh"	Ubud		Indonesia	80571	Bahasa		62 361 295010		62 361 295616	marketing@mitrabali.com	http://www.mitrabali.com	2000		Website: www.mitrabali.com	We have a Fair Trade shop in the Gianyar district.	19-Mar-13	MITRAB	mitrab				Agung Alit	Director	agungalit@mitrabali.com			Int.
MKS Export Ltd. (MKS)/ Former Madhya Kalikata Shilpangan	179	GS SAR Due	FTO	Guaranteed			Member	Pending	"314, Bora khola, Mukundapur"	Kolkata		India	700 099			91 33 2426 4872	91 33 2426 4873		mithudam@dataone.in	http://www.shilpanganindia.org and www.catgen.com/mks	1997				9-Oct-08	MADHYA	madhya			91 33 2426 4874	Mithu Dam	Secretary	mithudam@dataone.in			Int.
Naturveda Biotech	560	GS SAR Due	FTO	Guaranteed			Member	Paid 2018	"20, Nila Street, Vasanth Nagar, Muthialpet"	Pondicherry	Pondicherry	India	605003	English	8	91 0413 2211164			naturveda@gmail.com	www.bionaturveda.com	2007				18-Mar-13		ntbio				A. Alphonse	Director	naturveda@gmail.com			PO
Nepal Leprosy Trust	543	FTO PV Overdue	FTO		FTGN		Provisional	Paid 2018	"Tutepani, Satdobato, Laltipur-14 PO BOX NO 96"	Kathmandu		Nepal	PO Box 96	English	5	977 1 5521622 / 5151322	977 1 5523322	977 1 5523322	nlt@mail.com.np	www.nepalleprosytrust.org	2007				13-Mar-13		neplet	knshrestha@mail.com.np			Kamal Shrestha	Chief Executive	nlt@mail.com.np			PO/Int.
New Skill and Development Learning Experience (New SADLE)	837	GS SAR Due	FTO	Guaranteed	FTGN		Member	Paid 2018	"Baikunthapuri, Kapan-6, Kathmandu"	Kathmandu		Nepal	"8973, NPC-610"			97 7 1 4820680			nepraev@wlink.com.np	www.newsadle.com.np	2014				15-Apr-13						Chitra Bahadur KC		chitrakc2@hotmail.com			PO
Noah's Ark International Exports	208	GS SAR Due	FTO	Guaranteed	FTFI		Member	Paid 2018	"OPP. Q. No. 307, Railway Harthala Colony"	Moradabad		India	244001	Hindi		0091 591 2431883/ 2431885		0091 591 2430244	export@noahsindia.com	http://www.noahsindia.com/	2002				18-Feb-13	NOAARK	noaark	noahsarksamuel@gmail.com	samuelmasih@noahsindia.com		Samuel Masih	General Manager	noahsarksamuel@gmail.com			Int.
Oasis Transformation	899	GS SAR Due	FTO	Guaranteed	ECOTA		Member	Paid 2018	"House 408/10 Road 7 Bandhara, DOHS, 1206"	Dhaka		Bangladesh	1206			88 01777750741			helena.sanabam@oasistransformation.com	http://www.oasiscoffins.com/								md.kamrul@oasistransformation.com	david.how@oasiscoffins.com	mark.wakeling@oasiscoffins.com	Helena Sanabam	Impact Executive	helena.sanabam@oasistransformation.com			PO
One Planet Cafe Ltd	861	GS SAR Due	FTO	Guaranteed			Member	Paid 2018	Shiba Park 2-11-13-1101 Minatoku Tokyo 105-0011	Tokyo		Japan				81 3 5776-6228			peo@oneplanetcafe.com									satoko@oneplanetcafe.com			Mr Peo Ekberg	Director	peo@oneplanetcafe.com			PO
Oxfam Hong Kong	499	FTN in GS	FTN				Member	Paid 2018	"17/F, China United Centre28 Marble Road"	North Point		Hong Kong				852 2520 2525		852 2527 6307	stanley.so@oxfam.org.hk	www.oxfam.org.hk	2007				26-Feb-14			Kanie@oxfam.org.hk	ds@oxfam.org.hk		Stanley Pui Kin So	Contact Person	meanna.yeung@oxfam.org.hk	$ DUE		MO
Panay Fair Trade Center	222	GS SAR Due	FTO	Guaranteed			Member	Paid 2018	"Sitio Manue, Tagbac Sur, Oton"	Iloilo		Philippines	5020	English	6	033 3363911		0063 33 336 9611	gingerbanana2015@gmail.com	no website	1999				4-Feb-13	PANAYF	panayf	myorg.project@yahoo.com	"panayfairtradecenter@yahoo.com, csodev2011@gmail.com"		Angel Panganiban	Manager	angel.musco@yahoo.com			Int.
Paper Art Viet Company Limited	1004	Provisional SAR Due	FTO				Provisional	Paid 2018	"16 DHT17 street, Dong Hung Thuan Ward, District 12th"	Ho Chi Min City	Vietnam	Vietnam	tai.pham@paperartviet.com	khoa.tran@paperartviet.com 	care@paperartviet.com	84 8 3718 6649			tai.pham@paperartviet.com	PO		8/4/16						khoa.tran@paperartviet.com 			Tuan Tai Tran 	Marketing Staff	tai.pham@paperartviet.com			PO
Pebble Hathay Bunano Proshikon Society	859	GS SAR Due	FTO	Guaranteed			Member	Paid 2018	"1509, Solmaid, Badda, Dhaka-1212."	Dhaka		Bangladesh	 1212	 Bengali/ English	 BDT	88 29886083			hathaybunano@gmail.com	 www.pebblechild.com	2005							samanthamorshed@hotmail.com	acc.hathaybunano@gmail.com		Samantha Morshed	CEO	samanthamorshed@hotmail.com			PO/Int.
People Tree Japan	128	GS SAR Due	FTO	Guaranteed			Member	Paid 2018	"3F, 5-1-16 Okusawa, Setagaya-ku, Tokyo 158-0083"	Tokyo		Japan				81-3-5731-6671			ntanemori@peopletree.co.jp									JMinney@peopletree.co.jp 			Naoko Tanemori	Managing Director	ntanemori@peopletree.co.jp			PO
People's Organization For Development Import and Export (PODIE)	229	FTO Audit Overdue	FTO				Member	Pending	"197/7 Pardre Pio Mawatha, Off Thaladuwa Road"	Negombo	Western Province	Sri Lanka		English		94 31 2233773	0777 277 147	94 31 2233 774	tyrell@sltnet.lk	http://www.podiespice.com/aboutus.htm	1998				12-Jul-13	PODIEX	podiex	podie@sltnet.lk			Tyrell Fernando		tyrell@sltnet.lk			Int.
Phonthong Handicrafts Cooperative and Cama Crafts	226	FTO PV Overdue	FTO				Member	Pending	"Phontong Rd., Phontong Village"	Vientiane		Laos	PO Box 4556			856 21 212668		856 021 560598	et@camacrafts.org	http://www.camacrafts.org/	1998			"Second address:PO Box 90Nongkhai 43000Thailand"	13-Jun-12	PHONTO	phonto	snider.nafziger@gmail.com	phontong@gmail.com		Thepsulinthone Vannalath		baker.sarahnicole@gmail.com			PO
Polle Unnoyn Prokolpo (PUP)	230	FTO PV Overdue	FTO		ECOTA		Member	Pending	"""Khanik Niloy"" Chalklokman"	Bogra		Bangladesh	5800	Bengali		88 01711 302470			pupbogra@gmail.com	www.pupbd.org	1999			Palm Fiber products	21-Oct-13	POLLEP	pollep	mashruqulhasan@gmail.com		88 051 65703	Sk. Md. Abu Hassanat	Chief Co-ordinator	pupbogra@gmail.com			PO/Int.
Prokritee	860	GS SAR Due	FTO	Guaranteed	ECOTA		Member	Paid 2018	"House 1/1, Asadgate Road Block A Mohammadpur"	Dhaka		Bangladesh				0088 02 5815 3405			swapan@prokritee.com	http://www.prokritee.com/	2014							suraiya@prokritee.com	elizabeth@prokritee.com		Swapan Kumar Das	Executive Director	angela@prokritee.com			PO/Int.
Purnaa Enterprises	988	GS SAR Due	FTO	Guaranteed	FTGN		Member	Paid 2018	"Plot 512, 2nd Floor Abas Chowk, Bhaisipati"	Kathmandu		Nepal				977-1-5593094			richard@purnaa.com									info@purnaa.com			Richard Faber		richard@purnaa.com			PO
Pushpanjali	594	GS SAR Due	FTO	Guaranteed	FTFI		Member	Paid 2018	"35, Hanuman Nagar, Shahganj"	Agra	Uttar Pradesh	India	282010	"English, Indi, Urdu"	8	91 562 2511930		91 562 2511930	pft@pushpanjali.in	www.pushpanjali.in	2008			"Provides Tourism Services– Visit to historical places, Villages and producers"	22-Oct-13		pshpnjl	pushpanjalifairtrade@gmail.com			Anurag Mittal	CEO	pft@pushpanjali.in			PO
Rajana Association	1074	Provisional SAR Due	FTO		AAC		Provisional	Paid 2018	"Shop # 61C, St.450 , Toul Tom Pong Market ( Russian Market) "	Phnom Penh	Phnom Penh	Cambodia	Cambodia			855 23 993 642 / 855 12 789 350			nimulnhok@gmail.com 	nimulnhok@gmail.com 	Nimul Nhok	General Manager 		nimulnhok@gmail.com 							Nimul Nhok	General Manager	nimulnhok@gmail.com 			PO
Rian Impex	4344	Provisional SAR Due	FTO				Provisional	Pending	"92 Hassanabad, Rianawari 19003"	Srinagar Kashmir	Srinagar Kashmir	India	India	rianimpex@gmail.com		9.11942E+11			rianimpex@gmail.com	rianimpex@gmail.com	PO	1/11/18									Ali Mohammad	General Manager	rianimpex@gmail.com			PO
Sabala	838	GS SAR Due	FTO	Guaranteed	FTFI		Member	Paid 2018	"Samatha Building, Keertinagar, B. Bagewadi Road, Bijapur"	Bijapur		India	586101			91 - 8352 - 278204			mallamma2005@hotmail.com		2014				3-May-13			sabala2000@hotmail.com	sabalahandicrafts@gmail.com		Mallamma S. Yalawar	CEO	mallamma2005@hotmail.com			PO
Sadhna	795	GS SAR Due	FTO	Guaranteed	FTFI		Member	Paid 2018	"C/o Seva Mandir, Old Fatehpura, Udaipur"	Udaipur		India	313004	English	8	0294 2454655		0294 2450947	seema@sadhna.org	www.sadhna.org	2012			when paid they are directly Registered Member - special case alignment Asia	20-Jul-12			sadhna@sadhna.org	leela@sadhna.org		Seema Shah	Chief Executive	leela@sadhna.org			PO
SAFFY	250	GS SAR Due	FTO	Guaranteed			Member	Paid 2018	"2594 Lamayan Street, Sta Ana"	Manila		Philippines	1009	English		63 2 564 4169	63 2 563 7251	63 2 563 4632	saffy@saffyinc.com	www.saffyinc.com	1998				22-Oct-13	SAFRUD	safrud	finad@saffyinc.com	materials@saffyinc.com	632 561 0395	Lenie Fabellon	General Manager	generalmanager@saffyinc.com			Int.
Saidpur Enterprise	864	GS SAR Due	FTO	Guaranteed	ECOTA		Member	Paid 2018	Islambagh near chinimasjid Saidpur	Saidpur		Bangladesh				1715235042			ghayasse@gmail.com		2014										M. Ghayassuddin		ghayasse@gmail.com			PO/Int.
Salay Handmade Products Industries	252	FTO Audit Due	FTO				Member	Paid 2018	"Purok 1, National Highway, 9007 Poblacion"	Salay	Misamis Oriental	Philippines		English	6	63 88 583 0605	63 917 716 7594	63 88 227 10135	loreta@salayhandmade.com	http://www.salayhandmade.com/	2002		Our website: www.salayhandmade.com	Added to the existing programs of the SHAPII Foundation which is the social arm of sHAPII is te development of IT in the rural area. In January 2002 SHAPII Foundation Computer Services opened with the vision to provide IT to qualify rural people in the pr	18-Feb-14	SALAYP	salayp	finance@salayhandmade.com	salaycentral@salayhandmade.com	63 939 9229649	Loreta C. Rafisura	President	loreta@salayhandmade.com			PO
Sana Hastakala	255	GS SAR Due	FTO	Guaranteed	FTGN		Member	Paid 2018	"Kopundole - 10Lalitpur, Opposite Hotel Himalaya"	Kathmandu		Nepal	G.P.O. Box 9701	Nepalese	5	977 1 5522628	977 1 5555837	977 1 5526985	sanahast@wlink.com.np	www.sanahastakala.com	2003				7-Nov-14	SANAHA	sanaha	chandra@sanahast.wlink.com.np			Chandra Prasad Kachhipati	Executive Director	chandra@sanahast.wlink.com.np			PO
Saoban Handcrafts	1049	Provisional SAR Due	FTO				Provisional	Pending	"97/1 Ban Watchan, Chao Anou Road, Chanthabuly District, 0101"	Vientiane	Laos	Laos	1207			856 21 241835			shuimeng@gmail.com									seokham@saobancrafts.com	seokham.kmnv@gmail.com		Shui Meng Ng	Director	shuimeng@gmail.com			PO
Sasha Exports	258	GS SAR Due	FTO	Guaranteed	FTFI		Member	Paid 2018	"1C,Chatu Babu Lane"	Kolkata	West Bengal	India	700 014	Hindi & Bengali	8	91 33 22659761	91 33 22659776		sashaexport@vsnl.net	www.sashaworld.com	1998				24-May-12	SASHAX	sashax	sashaindia@vsnl.net		91 33 22494397	Roopa Mehta		roopa.mehta@sashaworld.com			Int.
Selective Designs	875	GS SAR Due	FTO	Guaranteed			Member	Paid 2018	"number 303/2, Sri Vijaya Mawatha, "	Bokundara	Piliyandala	Sri Lanka				94 011 2708248		94 011 2708393	nishan@selectivedesigns.biz	http://www.selectivedesigns.biz/	2014				9-Jul-14			info@selectivedesigns.biz			Nishan Dissanayaka	Managing Director	nishan@selectivedesigns.biz			PO
Self Help Association for Rural Education & Employment (SHARE)	266	FTO	FTSO		Extended Deadline		Member	Paid 2018	"Christine Mathews Memorial Complex, TB Sanatorium Post, 2, Mettupalayam"	Vellore	Tamil Nadu	India	632 011	Tamil		"91 94 43 227452, 96 29794712"	91 416 2264018	"91 416 2232490, 2230303"	craftswomen7@yahoo.com	shareforneedy.org	1998			"See email 26/03/2011Due  to some Taxation problem, the functioning mode of SHARE  has been changed. In order to remove the Tax problem, the decision has been taken in the following manner with the advise of our Auditors and Experts.Ø To do  the Market"	10-Feb-14	SHAREI	sharei	sharevellore@gmail.com	magalpoocharam@yahoo.com	91 416 2264667	K. Murugesan	Project Director	murugesan7in@yahoo.com			NTO
Selyn Exporters	540	GS SAR Due	FTO	Guaranteed		"Rice & Carry, Brigby's, Lanka Upcycles & FB goods desing"	Member	Paid 2018	"87, Kandy Road"	Kurunegala		Sri Lanka	60000			94 714 728551	94 714 433214	94 37 222 4016	Selyna@selyn.lk	www.selyn.lk	2007				22-Oct-13		selyne	visitselyn@gmail.com	sandra@selyn.lk	94 37 2232078	Sandra Beverly Wanduragala	CEO	sandra@selyn.lk	WON A PRIZE = OFF THE HOOK GOOD		PO/Int.
SETU	865	GS SAR Due	FTO	Guaranteed	FTFI		Member	Paid 2018	"92-93, Wrindavan Vihar, DCM, Ajmer Road"	Jaipur Rajasthan		India	302019	"English, Hindi"		91 98293 97229			info@setufairtrade.com	www.setufairtrade.com	2014							rashmi@setufairtrade.com			Rashmi Dharlwal	CEO	rashmi@setufairtrade.com			Int.
Shilpa Trust	268	GS SAR Due	FTO	Guaranteed	FTFI		Member	Paid 2018	"1317, 5th Main, 5th Cross, Prakash Nagar Karnataka"	Bangalore	PrakashNagar	India	560021	English	8	9844113563	32 900386		shilpatrust1992@gmail.com	https://www.facebook.com/#!/shilpatrust	1998		Our products can be seen on our website: www.catgen.com/shilpa and also SIPA's website: www.sipacrafts.com	The halewood resources used by SHIPA are managed sustainably.	21-Feb-13	SHILPA	shilpa			080 32900386	M. Bhupathy	Managing Trustee	kalakushala@gmail.com			PO
Shishu Polli Plus (SPP)	855	GS SAR Due	FTSO	Guaranteed	ECOTA		Member	Paid 2018	"Tengra, Sreepur, "	Gazipur		Bangladesh	1700			11 99850145			humayun.kabir@sppbd.org	www.thereepurvillage.org	2014							info@sppbd.org			Humayun Kabir	Pat Kerr 	pavkerr@hotmail.com			PO
Silence	273	GS SAR Due	FTO	Guaranteed	FTFI		Member	Pending	2 / 1 A Monoharpukur 2nd Lane	Kolkata		India	700 029			91 33 473 0269		91 33 413 1976	silence@vsnl.net	http://www.silence-india.org/activities.htm	1998				12-Jul-13	SILENC	silenc	silence@cal.vsnl.net.in	samirray@hotmail.com		Samir Ray	Secretary	silence@vsnl.net			PO
Sisters' Threads	1065	Provisional SAR Due	FTO				Provisional	Pending	"Down Qingshui Village, Qingshui Township, Mentougou District"	Beijing	Beijing	China	China	1418253268@qq.com	chenxuan0324@sina.com	8.61369E+12			chenxuan0324@sina.com	chenxuan0324@sina.com		6/23/17						bing.tang@fairtree.cn				CHEN Liangjing	bing.tang@fairtree.cn			PO
Soap-n-Scent	919	GS SAR Due	FTO	Guaranteed			Member	Paid 2018	327/9 Soi Srijundorn 2 Jaroenprated Rd.	Chiang Mai		Thailand				66 53 820115			info@soap-n-scent.com	soap-n-scent.com											Pimarn Tovanabootr		info@soap-n-scent.com			PO
Sundarban Khadi and Village Ind Society (SKVIS)	284	FTO PV Overdue	FTO		FTFI		Provisional	Pending	Vil & PO champahati	Parganas	West Bengal	India	743329			91 32 18 260435	91 32 18 261465	91 32 18 260435	shephali.skvis2009@gmail.com	no website	1997				20-Aug-13	SUKHVI	sukhvi	anima.skvis@gmail.com			Shephali Roy	Export Manager	shephali.skvis2009@gmail.com			PO
Tamas Society	982	Provisional SAR Due	FTSO				Provisional	Pending	"6B, Rajani Bhattacharjee Lane, Kolkata"	Kolkata	India	India				033-6501 0494			tamassociety@gmail.com  	2014								ceo@tamassociety.com			GAJI LAL SAHA	CEO	tamassociety@gmail.com  			PO
Tara Projects	293	GS SAR Due	FTO	Guaranteed	FTFI		Member	Paid 2018	"260, Okhla Industrial Estate, Phase III"	New Delhi		India	110020	Hindi		91 11 26839721	91 11 26918037	91 11 2683 8885	tara@taraprojects.com	www.taraprojects.com	1998		"Our published literature is mostly on Child Labour issues. We have two booklets and some survey reports from different producers' groups published, for further information visit or websites: www.taraprojects.com and www.peoplink.org/tara"	"Other activites of the projects include: awareness meetings, poster campaigns, rallies against child labour, workshops of social issues, street plays, adult literacy classes, e-commerce assistance, non-formal education for children, women's vocational pro"	28-Feb-14	TARAPR	tarapr	info@taraprojects.com		91 11 64729878	Moon Sharma		taraprojects@spectranet.com			PO
Tashinda	992	GS SAR Due	FTO	Guaranteed			Member	Paid 2018	"Jl. Bibis Ds.Kulon Gangin, Taman Tirto, Kasihan, Bantul, "	Yogyakarta		Indonesia				62 -274- 4342218 			cvtashinda@indo.net.id												Johni Sahlan	Director	cvtashinda@indo.net.id			PO
Teddy Exports	295	FTO Audit Overdue	FTO				Member	Pending	"Tenkasi Road, Alampati Post, Tirumangalam"	Madurai	Madurai District	India	625 706			91 4549 284500	91 9843540424	91 4549 280674	teddy@teddyexports.net	www.teddyexports.net	1997			Teddy is working in co-operation with the local community to obtain wood from sustainably managed resources and is in the process of getting ISO 9000 and EMS 14000 Certification.	1-Nov-13	TEDDYX	teddyx	edchrismurphy@aol.com	gavas13@gmail.com		Amanda Murphy		amanda.raghavan@hotmail.com			PO
Thai Tribal Crafts Fair Trade	299	GS SAR Due	FTO	Guaranteed			Member	Paid 2018	"208, Bamrungrat Rd."	Chiang Mai		Thailand	50000	English	16	66 53 241 043		66 53 243 493	info@ttcrafts.co.th	http://www.ttcrafts.co.th	2002		"CD catalogue, available on request and our website: www.ttcrafts.co.th"	Thai Tribal Handicrafts	13-Jun-12	THAITR	thaitr	elias@ttcrafts.co.th	harry@ttcrafts.co.th		Elias Maung	Contact person	suparat@ttcrafts.co.th			Int.
Thanapara Swallows Development Society	288	GS SAR Overdue	FTO	Guaranteed	ECOTA		Member	Pending	"P.O. Sardah, PS Charghat"	Dist. Rajshahi		Bangladesh		"Bengali, English"	20	88 0 722356067	88 0 1716113809	880 7223 56067	thanaswallows@gmail.com	www.thanaparaswallows.com	1999				25-Sep-13	SWALLO	swallo	mynulsanto@yahoo.com	raihanali2002@yahoo.com	880 171821173	Raihan Ali	Executive Director	thanaswallows@gmail.com			PO
The Ants Craft	779	FTO Audit Overdue	FTO		FTFI		Member	Pending	"2286, 1° Cross, 14 A,  Main Hall, 2° Stage, Indranagar"	Bangalore		India	560008		8	080 41715639	080 41521742		pradeep.theants@gmail.com	http://www.theantsstore.com	2012			"special case, once approved and paid, will be directly Registered Member"	11-Mar-13						Pradeep Krishnappa	Managing Director	Pradeep.Krishnappa@theantscraft.com			Int.
The Loyal Workshop	1036	Provisional SAR Due	FTO				Provisional	Paid 2018	"71/1b Prem Chand Boral St, Bowbazar, Kolkata 700012"	Kolkata	India	India				9.1983E+11			megan@theloyalworkshop.com									sarah@theloyalworkshop.com	info@theloyalworkshop.com		Megan Pandermann	Director	megan@theloyalworkshop.com			PO
Top of the World Coffee	832	GS SAR Due	FTO	Guaranteed			Member	Paid 2018	"P.O. Box 8975 EPC 1680"	Kathmandu		Nepal		English	5	977 1 557 2762			info@topoftheworldcoffee.com	www.topoftheworldcoffee.com	2014				12-Feb-13			dale@topoftheworldcoffee.com			Dale Lee Nafziger	Chief Executive Officer	info@topoftheworldcoffee.com			Int.
"Training, Assistance and Rural Advancement NGO  (TARANGO)"	643	FTO Audit Due	FTO		ECOTA		Member	Paid 2018	"282/5 1st Colony, Mazar Road, Mirpur-1"	Dhaka		Bangladesh	1216		20	88 02 9034341		88 02 801 53 14	Info@tarango-bd.org	www.tarango-bd.org	2009				28-Oct-13		trngd	wedptar@yahoo.com			U Thein Maung	Director	utheinmaung7@yahoo.com			PO/Int.
TWINE	796	GS SAR Due	FTO	Guaranteed			Member	Paid 2018	"1F., No.3, Lane 2, Yongkang. ST., Da'an District."	Taipei City 106		Taiwan	106			886 23688773	886 922890689		twine2006@gmail.com	www.twine.com.tw	2013				12-Jun-16						Elizabeth Tsai	General Manager	twine2006@gmail.com			MO
Usha Exim	963	FTO PV Due	FTO		FTFI		Member	Paid 2018	"224 Okhla Industrial Estate, Phase III"	New Delhi		India				91 11 41078001 			basant@ushaexim.com									sales@ushaexim.com	shastri@ushaexim.com		Mr. Manmohan Shastri	Managing Director	basant@ushaexim.com			PO
Usha Handicrafts	318	FTO PV Overdue	FTO				Member	Paid 2018	"F-36/9, Zohuri Mohalla, Babar Road, Mohammadpur"	Dhaka		Bangladesh	1207	Bengali	20	8.80176E+12		91 880 9 130207	ushahandi@gmail.com	no website	1998				19-Mar-13	USHAHC	ushahc	haqahsanul@gmail.com	ushacrafts2014@gmail.com		Samira Ahsan	Director	ushahandi@gmail.com			PO/Int.
Vietnam Rural Industries Research and Development Institute (VIRI)	607	FTO PV Overdue	FTSO				Member	Paid 2018	No. 35/19 Lac Trung Street	Hanoi		Vietnam				844 3636 8006		844 3636 8007	thoanb@viri.org.vn	www.viri.org.vn	2008				26-Mar-13		vtnmh	fairtrade@viri.org.vn	hongminhneu@gmail.com		Nguyen Bao Thoa	general manager	thoanb@viri.org.vn			NTO
Villageworks Songkhem	718	GS SAR Due	FTO	Guaranteed	AAC		Member	Paid 2018	"#118 Street 113 corner 330, Boungkengkong 3Beong Keong Kong III"	 Phnom Penh		Cambodia	855	Khmer		855 23 215732	855 2 995944 Mobile 		anak@villageworks.biz	www.villageworks.biz	2011			Application approved by the board on special case - EC grant application	24-Apr-14		villwo	socheata@villageworks.biz	sales@villageworks.biz		Anak	general manager	anak@villageworks.biz			PO/Int.
Wax Industri	977	GS SAR Due	FTO	Guaranteed			Member	Paid 2018	"Jl. Raya Ngawi – caruban Km 04, Ngawi – East Java"	East Java		Indonesia				62 351 743156			owp@waxindustri.com												Ong Wen Ping	CEO	owp@waxindustri.com			PO
WEAN Multipurpose Cooperative	382	GS SAR Due	FTO	Guaranteed	FTGN		Member	Paid 2018	"GPO Box 9195, Chakupat, Patan Dhoka"	Lalitpur		Nepal		English	5	977 1 5544981	977 1 5527829	977 1 5544981	weancop@wlink.com.np	weancop.org.np	2006				11-Mar-14		weanmc	pintomail13@gmail.com	weancop.marketing@gmail.com		Kalawati Rai	General Manager	weancop.marketing@gmail.com			PO
WEAVE (Women's Education for Advancement and Empowerment)	701	GS SAR Due	FTO	Guaranteed			Member	Paid 2018	"P.O. box 58, Chiang Mai 50202"	Chiang Mai		Thailand	50200		16	66 53 221654		66 53 357695	mong@weave-women.org	www.weave-women.org	2010				31-Jan-14			handicrafts@weave-women.org	ju@weave-women.org		Mitos Urgel	Executive Director	mitos@weave-women.org			Int.
Women's Skills Development Organization (WSDO)	326	GS SAR Due	FTO	Guaranteed	FTGN		Member	Paid 2018	"Simalchaur, Chautari Margh, Pokhara-8, Kaksi"	Pokhara		Nepal	37000	Nepalese		977 980282 1686	94 461525109	977 9856021686	wsdonepal@gmail.com	www.womensskillsdevelopment.org	2002			"name changed in 2011, from Women's Skill Development Project - to Women's Skill Development Organization - Pokhara"	8-Jan-14	WOMPRO	wompro	rkkwsdo@hotmail.com	meenawsdo@gmail.com		Ramkali Khadka	Executive Director	infomis35@gmail.com			PO
XSPROJECT	897	GS SAR Due	FTO	Guaranteed	FFTI		Member	Paid 2018	"Jl. Kaimun Jaya no.28, Cilandak Barat"	Jakarta		Indonesia	12430			62 21 7591 5840			retno.hapsari@xsproject-id.org	www.xsproject-id.org								retno.hapsari@gmail.com			Retno Haspari	General Manager	retno.hapsari@xsproject-id.org			PO
YD Craft (Y. Development)	994	FTO PV Due	FTO				Member	Paid 2018	"11 Soi Mengrairasmi, Sermsuk Road, Changpuaek Sub-district, Mueang District"	Chiang Mai		Thailand				"66 53 222 620, 66 53 211 606"			ydep@loxinfo.co.th									patcharin@ymcachiangmai.org			Ms. Wipa Salabsang	Manager Assist.	ydep@loxinfo.co.th			PO